ORBCOMM FM115           
1 41186U 15081H   25213.41101233  .00000796  00000+0  18953-3 0  9993
2 41186  46.9972 184.4619 0001730 280.0093  80.0598 14.62561470514393
ORBCOMM FM108           
1 41187U 15081J   25213.18724887  .00000446  00000+0  13229-3 0  9997
2 41187  47.0038 254.4501 0002422 189.3944 170.6896 14.58212617513445
ORBCOMM FM117           
1 41188U 15081K   25213.49601185  .00000439  00000+0  13086-3 0  9990
2 41188  47.0001 251.7381 0003166 195.2128 164.8662 14.58216456513506
ORBCOMM FM116           
1 41189U 15081L   25212.79787403  .00000822  00000+0  21263-3 0  9993
2 41189  47.0037 344.8673 0001620 340.3859  19.6964 14.58291234512161
